CCSDS_OMM_VERS = 2.0
CREATION_DATE  = 
ORIGINATOR     = 

OBJECT_NAME    = CZ-4B R/B
OBJECT_ID      = 2025-289B
CENTER_NAME    = EARTH
REF_FRAME      = TEME
TIME_SYSTEM    = UTC
MEAN_ELEMENT_THEORY = SGP/SGP4

EPOCH          = 2025-12-13T16:02:25.249920
MEAN_MOTION    = 15.67459414
ECCENTRICITY   = .01485383
INCLINATION    = 97.5267
RA_OF_ASC_NODE = 53.0784
ARG_OF_PERICENTER = 359.4368
MEAN_ANOMALY   = 0.6701

EPHEMERIS_TYPE = 0
CLASSIFICATION_TYPE = U
NORAD_CAT_ID   = 66989
ELEMENT_SET_NO = 999
REV_AT_EPOCH   = 71
BSTAR          = .73842514E-3
MEAN_MOTION_DOT = .148608E-2
MEAN_MOTION_DDOT = .8458405E-5

CCSDS_OMM_VERS = 2.0
CREATION_DATE  = 
ORIGINATOR     = 

OBJECT_NAME    = TJS-22
OBJECT_ID      = 2025-290A
CENTER_NAME    = EARTH
REF_FRAME      = TEME
TIME_SYSTEM    = UTC
MEAN_ELEMENT_THEORY = SGP/SGP4

EPOCH          = 2025-12-10T07:11:32.845344
MEAN_MOTION    = 2.15443148
ECCENTRICITY   = .6664534
INCLINATION    = 20.1261
RA_OF_ASC_NODE = 301.1464
ARG_OF_PERICENTER = 180.6877
MEAN_ANOMALY   = 177.6237

EPHEMERIS_TYPE = 0
CLASSIFICATION_TYPE = U
NORAD_CAT_ID   = 66990
ELEMENT_SET_NO = 999
REV_AT_EPOCH   = 3
BSTAR          = .79788243E-1
MEAN_MOTION_DOT = -.38E-6
MEAN_MOTION_DDOT = 0

CCSDS_OMM_VERS = 2.0
CREATION_DATE  = 
ORIGINATOR     = 

OBJECT_NAME    = CZ-3B R/B
OBJECT_ID      = 2025-290B
CENTER_NAME    = EARTH
REF_FRAME      = TEME
TIME_SYSTEM    = UTC
MEAN_ELEMENT_THEORY = SGP/SGP4

EPOCH          = 2025-12-10T06:44:55.577184
MEAN_MOTION    = 2.37676924
ECCENTRICITY   = .72420555
INCLINATION    = 28.4645
RA_OF_ASC_NODE = 302.5976
ARG_OF_PERICENTER = 179.3847
MEAN_ANOMALY   = 182.8677

EPHEMERIS_TYPE = 0
CLASSIFICATION_TYPE = U
NORAD_CAT_ID   = 66991
ELEMENT_SET_NO = 999
REV_AT_EPOCH   = 3
BSTAR          = .43781284E-3
MEAN_MOTION_DOT = .18897E-3
MEAN_MOTION_DDOT = .456211E-6

CCSDS_OMM_VERS = 2.0
CREATION_DATE  = 
ORIGINATOR     = 

OBJECT_NAME    = 2025-292A
OBJECT_ID      = 2025-292A
CENTER_NAME    = EARTH
REF_FRAME      = TEME
TIME_SYSTEM    = UTC
MEAN_ELEMENT_THEORY = SGP/SGP4

EPOCH          = 2025-12-13T11:19:41.660544
MEAN_MOTION    = 15.04500321
ECCENTRICITY   = .00138883
INCLINATION    = 97.6535
RA_OF_ASC_NODE = 60.0159
ARG_OF_PERICENTER = 270.3845
MEAN_ANOMALY   = 89.5790

EPHEMERIS_TYPE = 0
CLASSIFICATION_TYPE = U
NORAD_CAT_ID   = 66993
ELEMENT_SET_NO = 999
REV_AT_EPOCH   = 50
BSTAR          = .5300043E-3
MEAN_MOTION_DOT = .7377E-4
MEAN_MOTION_DDOT = 0

CCSDS_OMM_VERS = 2.0
CREATION_DATE  = 
ORIGINATOR     = 

OBJECT_NAME    = 2025-292B
OBJECT_ID      = 2025-292B
CENTER_NAME    = EARTH
REF_FRAME      = TEME
TIME_SYSTEM    = UTC
MEAN_ELEMENT_THEORY = SGP/SGP4

EPOCH          = 2025-12-13T14:31:03.978624
MEAN_MOTION    = 15.05128665
ECCENTRICITY   = .00630267
INCLINATION    = 98.0920
RA_OF_ASC_NODE = 59.5045
ARG_OF_PERICENTER = 324.1214
MEAN_ANOMALY   = 35.5786

EPHEMERIS_TYPE = 0
CLASSIFICATION_TYPE = U
NORAD_CAT_ID   = 66994
ELEMENT_SET_NO = 999
REV_AT_EPOCH   = 52
BSTAR          = .47998473E-3
MEAN_MOTION_DOT = .7074E-4
MEAN_MOTION_DDOT = 0

CCSDS_OMM_VERS = 2.0
CREATION_DATE  = 
ORIGINATOR     = 

OBJECT_NAME    = 2025-292C
OBJECT_ID      = 2025-292C
CENTER_NAME    = EARTH
REF_FRAME      = TEME
TIME_SYSTEM    = UTC
MEAN_ELEMENT_THEORY = SGP/SGP4

EPOCH          = 2025-12-11T21:01:03.496224
MEAN_MOTION    = 15.04519537
ECCENTRICITY   = .0014385
INCLINATION    = 97.6530
RA_OF_ASC_NODE = 58.4343
ARG_OF_PERICENTER = 277.3974
MEAN_ANOMALY   = 82.5617

EPHEMERIS_TYPE = 0
CLASSIFICATION_TYPE = U
NORAD_CAT_ID   = 66995
ELEMENT_SET_NO = 999
REV_AT_EPOCH   = 26
BSTAR          = .11824E-3
MEAN_MOTION_DOT = .1597E-4
MEAN_MOTION_DDOT = 0

CCSDS_OMM_VERS = 2.0
CREATION_DATE  = 
ORIGINATOR     = 

OBJECT_NAME    = 2025-292D
OBJECT_ID      = 2025-292D
CENTER_NAME    = EARTH
REF_FRAME      = TEME
TIME_SYSTEM    = UTC
MEAN_ELEMENT_THEORY = SGP/SGP4

EPOCH          = 2025-12-11T21:00:57.670272
MEAN_MOTION    = 15.04579315
ECCENTRICITY   = .0013407
INCLINATION    = 97.6520
RA_OF_ASC_NODE = 58.4351
ARG_OF_PERICENTER = 279.6596
MEAN_ANOMALY   = 80.3115

EPHEMERIS_TYPE = 0
CLASSIFICATION_TYPE = U
NORAD_CAT_ID   = 66996
ELEMENT_SET_NO = 999
REV_AT_EPOCH   = 26
BSTAR          = .11811E-3
MEAN_MOTION_DOT = .1598E-4
MEAN_MOTION_DDOT = 0

CCSDS_OMM_VERS = 2.0
CREATION_DATE  = 
ORIGINATOR     = 

OBJECT_NAME    = 2025-292E
OBJECT_ID      = 2025-292E
CENTER_NAME    = EARTH
REF_FRAME      = TEME
TIME_SYSTEM    = UTC
MEAN_ELEMENT_THEORY = SGP/SGP4

EPOCH          = 2025-12-11T21:00:50.206176
MEAN_MOTION    = 15.04655353
ECCENTRICITY   = .0013781
INCLINATION    = 97.6541
RA_OF_ASC_NODE = 58.4346
ARG_OF_PERICENTER = 280.9887
MEAN_ANOMALY   = 78.9789

EPHEMERIS_TYPE = 0
CLASSIFICATION_TYPE = U
NORAD_CAT_ID   = 66997
ELEMENT_SET_NO = 999
REV_AT_EPOCH   = 25
BSTAR          = .11812E-3
MEAN_MOTION_DOT = .1601E-4
MEAN_MOTION_DDOT = 0

CCSDS_OMM_VERS = 2.0
CREATION_DATE  = 
ORIGINATOR     = 

OBJECT_NAME    = 2025-292F
OBJECT_ID      = 2025-292F
CENTER_NAME    = EARTH
REF_FRAME      = TEME
TIME_SYSTEM    = UTC
MEAN_ELEMENT_THEORY = SGP/SGP4

EPOCH          = 2025-12-11T21:00:35.828352
MEAN_MOTION    = 15.04802497
ECCENTRICITY   = .0014607
INCLINATION    = 97.6565
RA_OF_ASC_NODE = 58.4348
ARG_OF_PERICENTER = 280.9703
MEAN_ANOMALY   = 78.9880

EPHEMERIS_TYPE = 0
CLASSIFICATION_TYPE = U
NORAD_CAT_ID   = 66998
ELEMENT_SET_NO = 999
REV_AT_EPOCH   = 26
BSTAR          = .11825E-3
MEAN_MOTION_DOT = .161E-4
MEAN_MOTION_DDOT = 0

CCSDS_OMM_VERS = 2.0
CREATION_DATE  = 
ORIGINATOR     = 

OBJECT_NAME    = 2025-292G
OBJECT_ID      = 2025-292G
CENTER_NAME    = EARTH
REF_FRAME      = TEME
TIME_SYSTEM    = UTC
MEAN_ELEMENT_THEORY = SGP/SGP4

EPOCH          = 2025-12-11T21:00:29.832192
MEAN_MOTION    = 15.04867239
ECCENTRICITY   = .0014449
INCLINATION    = 97.6571
RA_OF_ASC_NODE = 58.4362
ARG_OF_PERICENTER = 282.8480
MEAN_ANOMALY   = 77.1132

EPHEMERIS_TYPE = 0
CLASSIFICATION_TYPE = U
NORAD_CAT_ID   = 66999
ELEMENT_SET_NO = 999
REV_AT_EPOCH   = 26
BSTAR          = .11819E-3
MEAN_MOTION_DOT = .1612E-4
MEAN_MOTION_DDOT = 0

CCSDS_OMM_VERS = 2.0
CREATION_DATE  = 
ORIGINATOR     = 

OBJECT_NAME    = 2025-292H
OBJECT_ID      = 2025-292H
CENTER_NAME    = EARTH
REF_FRAME      = TEME
TIME_SYSTEM    = UTC
MEAN_ELEMENT_THEORY = SGP/SGP4

EPOCH          = 2025-12-11T21:00:30.464640
MEAN_MOTION    = 15.04864273
ECCENTRICITY   = .0014339
INCLINATION    = 97.6576
RA_OF_ASC_NODE = 58.4335
ARG_OF_PERICENTER = 283.4517
MEAN_ANOMALY   = 76.5111

EPHEMERIS_TYPE = 0
CLASSIFICATION_TYPE = U
NORAD_CAT_ID   = 67000
ELEMENT_SET_NO = 999
REV_AT_EPOCH   = 13
BSTAR          = .23206E-3
MEAN_MOTION_DOT = .3225E-4
MEAN_MOTION_DDOT = 0

CCSDS_OMM_VERS = 2.0
CREATION_DATE  = 
ORIGINATOR     = 

OBJECT_NAME    = 2025-292J
OBJECT_ID      = 2025-292J
CENTER_NAME    = EARTH
REF_FRAME      = TEME
TIME_SYSTEM    = UTC
MEAN_ELEMENT_THEORY = SGP/SGP4

EPOCH          = 2025-12-13T11:20:17.855232
MEAN_MOTION    = 15.04316110
ECCENTRICITY   = .00143059
INCLINATION    = 97.6570
RA_OF_ASC_NODE = 60.0163
ARG_OF_PERICENTER = 266.1869
MEAN_ANOMALY   = 93.7722

EPHEMERIS_TYPE = 0
CLASSIFICATION_TYPE = U
NORAD_CAT_ID   = 67001
ELEMENT_SET_NO = 999
REV_AT_EPOCH   = 50
BSTAR          = .74407063E-3
MEAN_MOTION_DOT = .10337E-3
MEAN_MOTION_DDOT = 0

CCSDS_OMM_VERS = 2.0
CREATION_DATE  = 
ORIGINATOR     = 

OBJECT_NAME    = ZK-1A R/B
OBJECT_ID      = 2025-292K
CENTER_NAME    = EARTH
REF_FRAME      = TEME
TIME_SYSTEM    = UTC
MEAN_ELEMENT_THEORY = SGP/SGP4

EPOCH          = 2025-12-13T16:32:08.415456
MEAN_MOTION    = 15.54923446
ECCENTRICITY   = .02191697
INCLINATION    = 97.7240
RA_OF_ASC_NODE = 60.5440
ARG_OF_PERICENTER = 2.5091
MEAN_ANOMALY   = 357.7206

EPHEMERIS_TYPE = 0
CLASSIFICATION_TYPE = U
NORAD_CAT_ID   = 67002
ELEMENT_SET_NO = 999
REV_AT_EPOCH   = 54
BSTAR          = .94718902E-3
MEAN_MOTION_DOT = .192596E-2
MEAN_MOTION_DDOT = .11714056E-4

CCSDS_OMM_VERS = 2.0
CREATION_DATE  = 
ORIGINATOR     = 

OBJECT_NAME    = HULIANWANG DIGUI 16A
OBJECT_ID      = 2025-295A
CENTER_NAME    = EARTH
REF_FRAME      = TEME
TIME_SYSTEM    = UTC
MEAN_ELEMENT_THEORY = SGP/SGP4

EPOCH          = 2025-12-12T05:06:27.347328
MEAN_MOTION    = 14.25879966
ECCENTRICITY   = .00136284
INCLINATION    = 50.0035
RA_OF_ASC_NODE = 14.4753
ARG_OF_PERICENTER = 247.7813
MEAN_ANOMALY   = 112.1656

EPHEMERIS_TYPE = 0
CLASSIFICATION_TYPE = U
NORAD_CAT_ID   = 67059
ELEMENT_SET_NO = 999
REV_AT_EPOCH   = 4
BSTAR          = .3434713E-5
MEAN_MOTION_DOT = -.152E-5
MEAN_MOTION_DDOT = 0

CCSDS_OMM_VERS = 2.0
CREATION_DATE  = 
ORIGINATOR     = 

OBJECT_NAME    = HULIANWANG DIGUI 16B
OBJECT_ID      = 2025-295B
CENTER_NAME    = EARTH
REF_FRAME      = TEME
TIME_SYSTEM    = UTC
MEAN_ELEMENT_THEORY = SGP/SGP4

EPOCH          = 2025-12-12T05:06:25.468992
MEAN_MOTION    = 14.26022254
ECCENTRICITY   = .0013423
INCLINATION    = 50.0012
RA_OF_ASC_NODE = 14.4776
ARG_OF_PERICENTER = 244.6732
MEAN_ANOMALY   = 115.2792

EPHEMERIS_TYPE = 0
CLASSIFICATION_TYPE = U
NORAD_CAT_ID   = 67060
ELEMENT_SET_NO = 999
REV_AT_EPOCH   = 4
BSTAR          = .4398892E-5
MEAN_MOTION_DOT = -.15E-5
MEAN_MOTION_DDOT = 0

